{
  "type": "FeatureCollection",
  "features": [
    {
      "type": "Feature",
      "properties": {
        "OBJECT_NAME": "NOAA 21 (JPSS-2)",
        "OBJECT_ID": "2022-150A",
        "EPOCH": "2025-11-29T20:16:15.339072",
        "MEAN_MOTION": 14.19518351,
        "ECCENTRICITY": 0.0002605,
        "INCLINATION": 98.7443,
        "RA_OF_ASC_NODE": 270.3149,
        "ARG_OF_PERICENTER": 61.957,
        "MEAN_ANOMALY": 298.1869,
        "EPHEMERIS_TYPE": 0,
        "CLASSIFICATION_TYPE": "U",
        "NORAD_CAT_ID": 54234,
        "ELEMENT_SET_NO": 999,
        "REV_AT_EPOCH": 15826,
        "BSTAR": 6.5655e-05,
        "MEAN_MOTION_DOT": 9.4e-07,
        "MEAN_MOTION_DDOT": 0,
        "norad_id": 54234,
        "name": "NOAA 21 (JPSS-2)",
        "group": "weather",
        "longitude_deg": NaN,
        "latitude_deg": NaN,
        "alt_km": NaN,
        "orbit_class": "HEO",
        "timestamp": "2025-11-30T07:29:52.837129+00:00"
      },
      "geometry": {
        "type": "Point",
        "coordinates": [
          NaN,
          NaN
        ]
      }
    },
    {
      "type": "Feature",
      "properties": {
        "OBJECT_NAME": "METEOSAT-12 (MTG-I1)",
        "OBJECT_ID": "2022-170C",
        "EPOCH": "2025-11-29T17:17:46.896288",
        "MEAN_MOTION": 1.00273357,
        "ECCENTRICITY": 0.0001329,
        "INCLINATION": 0.7117,
        "RA_OF_ASC_NODE": 29.3566,
        "ARG_OF_PERICENTER": 208.2004,
        "MEAN_ANOMALY": 90.4382,
        "EPHEMERIS_TYPE": 0,
        "CLASSIFICATION_TYPE": "U",
        "NORAD_CAT_ID": 54743,
        "ELEMENT_SET_NO": 999,
        "REV_AT_EPOCH": 1097,
        "BSTAR": 0,
        "MEAN_MOTION_DOT": 1.4e-07,
        "MEAN_MOTION_DDOT": 0,
        "norad_id": 54743,
        "name": "METEOSAT-12 (MTG-I1)",
        "group": "weather",
        "longitude_deg": NaN,
        "latitude_deg": NaN,
        "alt_km": NaN,
        "orbit_class": "HEO",
        "timestamp": "2025-11-30T07:29:52.837629+00:00"
      },
      "geometry": {
        "type": "Point",
        "coordinates": [
          NaN,
          NaN
        ]
      }
    },
    {
      "type": "Feature",
      "properties": {
        "OBJECT_NAME": "TIANMU-1 03",
        "OBJECT_ID": "2023-039A",
        "EPOCH": "2025-11-29T19:57:23.848128",
        "MEAN_MOTION": 15.40359834,
        "ECCENTRICITY": 0.0004522,
        "INCLINATION": 97.5108,
        "RA_OF_ASC_NODE": 136.1281,
        "ARG_OF_PERICENTER": 98.0786,
        "MEAN_ANOMALY": 262.0973,
        "EPHEMERIS_TYPE": 0,
        "CLASSIFICATION_TYPE": "U",
        "NORAD_CAT_ID": 55973,
        "ELEMENT_SET_NO": 999,
        "REV_AT_EPOCH": 15007,
        "BSTAR": 0.00038056,
        "MEAN_MOTION_DOT": 0.00015294,
        "MEAN_MOTION_DDOT": 0,
        "norad_id": 55973,
        "name": "TIANMU-1 03",
        "group": "weather",
        "longitude_deg": NaN,
        "latitude_deg": NaN,
        "alt_km": NaN,
        "orbit_class": "HEO",
        "timestamp": "2025-11-30T07:29:52.841847+00:00"
      },
      "geometry": {
        "type": "Point",
        "coordinates": [
          NaN,
          NaN
        ]
      }
    },
    {
      "type": "Feature",
      "properties": {
        "OBJECT_NAME": "TIANMU-1 04",
        "OBJECT_ID": "2023-039B",
        "EPOCH": "2025-11-29T21:05:18.993984",
        "MEAN_MOTION": 15.40689997,
        "ECCENTRICITY": 0.0005255,
        "INCLINATION": 97.504,
        "RA_OF_ASC_NODE": 135.373,
        "ARG_OF_PERICENTER": 94.4944,
        "MEAN_ANOMALY": 265.6902,
        "EPHEMERIS_TYPE": 0,
        "CLASSIFICATION_TYPE": "U",
        "NORAD_CAT_ID": 55974,
        "ELEMENT_SET_NO": 999,
        "REV_AT_EPOCH": 15008,
        "BSTAR": 0.00040725,
        "MEAN_MOTION_DOT": 0.00016557,
        "MEAN_MOTION_DDOT": 0,
        "norad_id": 55974,
        "name": "TIANMU-1 04",
        "group": "weather",
        "longitude_deg": NaN,
        "latitude_deg": NaN,
        "alt_km": NaN,
        "orbit_class": "HEO",
        "timestamp": "2025-11-30T07:29:52.841854+00:00"
      },
      "geometry": {
        "type": "Point",
        "coordinates": [
          NaN,
          NaN
        ]
      }
    },
    {
      "type": "Feature",
      "properties": {
        "OBJECT_NAME": "TIANMU-1 05",
        "OBJECT_ID": "2023-039C",
        "EPOCH": "2025-11-29T19:18:59.268096",
        "MEAN_MOTION": 15.40317816,
        "ECCENTRICITY": 0.0004234,
        "INCLINATION": 97.5087,
        "RA_OF_ASC_NODE": 135.7888,
        "ARG_OF_PERICENTER": 114.9598,
        "MEAN_ANOMALY": 245.2088,
        "EPHEMERIS_TYPE": 0,
        "CLASSIFICATION_TYPE": "U",
        "NORAD_CAT_ID": 55975,
        "ELEMENT_SET_NO": 999,
        "REV_AT_EPOCH": 15005,
        "BSTAR": 0.00039129,
        "MEAN_MOTION_DOT": 0.00015706,
        "MEAN_MOTION_DDOT": 0,
        "norad_id": 55975,
        "name": "TIANMU-1 05",
        "group": "weather",
        "longitude_deg": NaN,
        "latitude_deg": NaN,
        "alt_km": NaN,
        "orbit_class": "HEO",
        "timestamp": "2025-11-30T07:29:52.841861+00:00"
      },
      "geometry": {
        "type": "Point",
        "coordinates": [
          NaN,
          NaN
        ]
      }
    },
    {
      "type": "Feature",
      "properties": {
        "OBJECT_NAME": "TIANMU-1 06",
        "OBJECT_ID": "2023-039D",
        "EPOCH": "2025-11-29T19:35:33.503136",
        "MEAN_MOTION": 15.40739926,
        "ECCENTRICITY": 0.0004619,
        "INCLINATION": 97.5098,
        "RA_OF_ASC_NODE": 136.2552,
        "ARG_OF_PERICENTER": 110.8033,
        "MEAN_ANOMALY": 249.3708,
        "EPHEMERIS_TYPE": 0,
        "CLASSIFICATION_TYPE": "U",
        "NORAD_CAT_ID": 55976,
        "ELEMENT_SET_NO": 999,
        "REV_AT_EPOCH": 15007,
        "BSTAR": 0.00038798,
        "MEAN_MOTION_DOT": 0.00015792,
        "MEAN_MOTION_DDOT": 0,
        "norad_id": 55976,
        "name": "TIANMU-1 06",
        "group": "weather",
        "longitude_deg": NaN,
        "latitude_deg": NaN,
        "alt_km": NaN,
        "orbit_class": "HEO",
        "timestamp": "2025-11-30T07:29:52.841867+00:00"
      },
      "geometry": {
        "type": "Point",
        "coordinates": [
          NaN,
          NaN
        ]
      }
    },
    {
      "type": "Feature",
      "properties": {
        "OBJECT_NAME": "FENGYUN 3G",
        "OBJECT_ID": "2023-055A",
        "EPOCH": "2025-11-29T20:32:56.990688",
        "MEAN_MOTION": 15.52505923,
        "ECCENTRICITY": 0.0009244,
        "INCLINATION": 49.9943,
        "RA_OF_ASC_NODE": 293.8813,
        "ARG_OF_PERICENTER": 86.2855,
        "MEAN_ANOMALY": 273.9169,
        "EPHEMERIS_TYPE": 0,
        "CLASSIFICATION_TYPE": "U",
        "NORAD_CAT_ID": 56232,
        "ELEMENT_SET_NO": 999,
        "REV_AT_EPOCH": 14902,
        "BSTAR": 0.00051625,
        "MEAN_MOTION_DOT": 0.0003198,
        "MEAN_MOTION_DDOT": 0,
        "norad_id": 56232,
        "name": "FENGYUN 3G",
        "group": "weather",
        "longitude_deg": NaN,
        "latitude_deg": NaN,
        "alt_km": NaN,
        "orbit_class": "HEO",
        "timestamp": "2025-11-30T07:29:52.843035+00:00"
      },
      "geometry": {
        "type": "Point",
        "coordinates": [
          NaN,
          NaN
        ]
      }
    },
    {
      "type": "Feature",
      "properties": {
        "OBJECT_NAME": "METEOR-M2 3",
        "OBJECT_ID": "2023-091A",
        "EPOCH": "2025-11-29T19:59:59.084736",
        "MEAN_MOTION": 14.24023563,
        "ECCENTRICITY": 0.0004571,
        "INCLINATION": 98.6396,
        "RA_OF_ASC_NODE": 27.5969,
        "ARG_OF_PERICENTER": 42.9324,
        "MEAN_ANOMALY": 317.2211,
        "EPHEMERIS_TYPE": 0,
        "CLASSIFICATION_TYPE": "U",
        "NORAD_CAT_ID": 57166,
        "ELEMENT_SET_NO": 999,
        "REV_AT_EPOCH": 12614,
        "BSTAR": 2.0462e-05,
        "MEAN_MOTION_DOT": 4e-08,
        "MEAN_MOTION_DDOT": 0,
        "norad_id": 57166,
        "name": "METEOR-M2 3",
        "group": "weather",
        "longitude_deg": NaN,
        "latitude_deg": NaN,
        "alt_km": NaN,
        "orbit_class": "HEO",
        "timestamp": "2025-11-30T07:29:52.846952+00:00"
      },
      "geometry": {
        "type": "Point",
        "coordinates": [
          NaN,
          NaN
        ]
      }
    }
  ]
}