NOAA 21 (JPSS-2)        
1 54234U 22150A   25333.84462198  .00000094  00000+0  65655-4 0  9999
2 54234  98.7443 270.3149 0002605  61.9570 298.1869 14.19518351158265
METEOSAT-12 (MTG-I1)    
1 54743U 22170C   25333.72068167  .00000014  00000+0  00000+0 0  9991
2 54743   0.7117  29.3566 0001329 208.2004  90.4382  1.00273357 10974
TIANMU-1 03             
1 55973U 23039A   25333.83152602  .00015294  00000+0  38056-3 0  9994
2 55973  97.5108 136.1281 0004522  98.0786 262.0973 15.40359834150078
TIANMU-1 04             
1 55974U 23039B   25333.87869206  .00016557  00000+0  40725-3 0  9993
2 55974  97.5040 135.3730 0005255  94.4944 265.6902 15.40689997150082
TIANMU-1 05             
1 55975U 23039C   25333.80485264  .00015706  00000+0  39129-3 0  9996
2 55975  97.5087 135.7888 0004234 114.9598 245.2088 15.40317816150055
TIANMU-1 06             
1 55976U 23039D   25333.81635999  .00015792  00000+0  38798-3 0  9996
2 55976  97.5098 136.2552 0004619 110.8033 249.3708 15.40739926150074
FENGYUN 3G              
1 56232U 23055A   25333.85621517  .00031980  00000+0  51625-3 0  9996
2 56232  49.9943 293.8813 0009244  86.2855 273.9169 15.52505923149025
METEOR-M2 3             
1 57166U 23091A   25333.83332274  .00000004  00000+0  20462-4 0  9999
2 57166  98.6396  27.5969 0004571  42.9324 317.2211 14.24023563126148
